SCD 1                   
1 22490U 93009B   26197.91814634  .00000295  00000+0  30070-4 0  9998
2 22490  24.9706  24.0031 0042082  92.6970  21.2877 14.46129044765422
TECHSAT 1B (GO-32)      
1 25397U 98043D   26197.91760655  .00000005  00000+0  22495-4 0  9994
2 25397  99.0086 191.4285 0002236 112.2048 247.9368 14.24433546455561
SCD 2                   
1 25504U 98060A   26198.34032971  .00000267  00000+0  23852-4 0  9992
2 25504  24.9942 246.2077 0017010  81.9084   4.5797 14.45535219464695
DLR-TUBSAT              
1 25757U 99029B   26198.26062589 -.00000003  00000+0  11152-4 0  9996
2 25757  98.6712 194.7566 0012993 257.8987 102.0752 14.52433472437612
TERRA                   
1 25994U 99068A   26198.22030542  .00000172  00000+0  43912-4 0  9997
2 25994  97.9440 246.5733 0003489 118.7184 314.4319 14.61124594413996
MAROC-TUBSAT            
1 27004U 01056D   26198.31638953 -.00000044  00000+0  30522-5 0  9994
2 27004  99.8100  15.7461 0020574  66.8557  55.8229 13.70263581230317
AQUA                    
1 27424U 02022A   26198.23213147  .00000338  00000+0  76968-4 0  9997
2 27424  98.4298 168.1195 0001226 101.4578 317.4190 14.62130152287668
SHIYAN-1 (SY-1)         
1 28220U 04012A   26198.18696479  .00007510  00000+0  22745-3 0  9992
2 28220  97.8684 278.2199 0004117 265.4291  94.6480 15.34483845215697
AURA                    
1 28376U 04026A   26198.24999778  .00000347  00000+0  79994-4 0  9994
2 28376  98.3431 154.9557 0001346  93.6409 266.4946 14.61369436170601
IRS-P5 (CARTOSAT-1)     
1 28649U 05017A   26198.00793889  .00000750  00000+0  80936-4 0  9993
2 28649  97.5306 219.7198 0001291  50.7450 309.3883 14.91119758148263
SINAH 1                 
1 28893U 05043D   26198.32827273  .00000124  00000+0  32917-4 0  9994
2 28893  98.2897 332.8337 0014547 176.8794 183.2502 14.64176218104935
RESURS-DK 1             
1 29228U 06021A   26197.45020316  .00000852  00000+0  53811-4 0  9994
2 29228  69.9306 263.7965 0007178 269.6714  90.3630 15.13321208107009
ARIRANG-2 (KOMPSAT-2)   
1 29268U 06031A   26198.30584743 -.00000119  00000+0 -13882-4 0  9995
2 29268  97.8308  21.2958 0014056 344.0764 194.6173 14.64675370 65886
LAPAN-TUBSAT            
1 29709U 07001A   26198.28681625  .00000275  00000+0  38076-4 0  9990
2 29709  98.1347 198.1914 0013579  87.8021 272.4749 14.85977033 55625
HAIYANG-1B              
1 31113U 07010A   26197.93073682  .00000029  00000+0  26942-4 0  9997
2 31113  98.3516 178.6253 0014687 111.0193 249.2564 14.31033589  4897
COSMO-SKYMED 1          
1 31598U 07023A   26198.27716000  .00001505  00000+0  13524-3 0  9995
2 31598  97.8848  30.3877 0001599 102.0659 258.0742 14.97225686 34293
TERRASAR-X              
1 31698U 07026A   26188.47915537  .00000240  00000+0  14624-4 0  9994
2 31698  97.4461 195.8972 0001878  86.9540 273.1909 15.19153986 56300
WORLDVIEW-1 (WV-1)      
1 32060U 07041A   26198.22410567  .00003080  00000+0  12794-3 0  9992
2 32060  97.3907 317.5471 0001719 196.9958 163.1222 15.24571679 47455
YAOGAN-3                
1 32289U 07055A   26198.26322726  .00000603  00000+0  66853-4 0  9997
2 32289  97.8141 227.8441 0001548  77.1774 282.9617 14.90886257 10359
COSMO-SKYMED 2          
1 32376U 07059A   26198.27074688  .00000153  00000+0  25794-4 0  9999
2 32376  97.8895  21.4336 0001458  93.8257 266.3122 14.82151467  6467
RADARSAT-2              
1 32382U 07061A   26198.33519671  .00000320  00000+0  14119-3 0  9996
2 32382  98.5778 204.8376 0001319  83.7576 276.3757 14.29984645970267
CARTOSAT-2A             
1 32783U 08021A   26198.28277337  .00000025  00000+0  10092-4 0  9991
2 32783  97.7613 245.9619 0012326  20.7714 339.3996 14.79276612983253
HUANJING 1A (HJ-1A)     
1 33320U 08041A   26198.30571470  .00000786  00000+0  10018-3 0  9990
2 33320  97.6695 182.9831 0020196  43.1022 317.1769 14.84051515962877
HUANJING 1B (HJ-1B)     
1 33321U 08041B   26198.28862845  .00000403  00000+0  54874-4 0  9992
2 33321  97.6533 186.0470 0037990  84.6360 275.9187 14.83367934962877
GEOEYE 1                
1 33331U 08042A   26198.21076931  .00000161  00000+0  39208-4 0  9995
2 33331  98.1326 271.7830 0003802 339.6582  20.4469 14.64650229954542
THEOS                   
1 33396U 08049A   26198.26481477  .00000050  00000+0  43217-4 0  9995
2 33396  98.5555 254.5696 0001102  89.6674 270.4630 14.20137315922231
COSMO-SKYMED 3          
1 33412U 08054A   26198.28727193  .00002379  00000+0  16234-3 0  9994
2 33412  97.8244  57.3550 0015936 159.6959 200.4905 15.07124362961470
YAOGAN-4                
1 33446U 08061A   26198.25494806  .00000453  00000+0  61958-4 0  9993
2 33446  97.9303 131.5445 0013642 338.7192  21.3452 14.83253350950123
GOSAT (IBUKI)           
1 33492U 09002A   26198.27487925  .00000285  00000+0  58810-4 0  9992
2 33492  98.0915 308.9825 0001128  88.9668 271.1666 14.67541047935877
DEIMOS-1                
1 35681U 09041A   26198.30125312  .00000147  00000+0  28787-4 0  9997
2 35681  97.7433 354.2285 0002786  89.7639 270.3890 14.75264887911329
